{
  "type": "FeatureCollection",
  "features": [
    {
      "type": "Feature",
      "geometry": {
        "type": "Point",
        "coordinates": [
          -78.761337,
          -0.020758
        ]
      },
      "properties": {
        "name": "31 de mayo de 2026 a las 09:52",
        "marker-color": "red",
        "description": "31 de mayo de 2026 a las 09:52\nAltitud: 1718 msnm \nAltura: 10,40 m \n# individuos: 1 \nFotos: 9767 - 9761"
      }
    },
    {
      "type": "Feature",
      "geometry": {
        "type": "Point",
        "coordinates": [
          -78.761368,
          -0.020658
        ]
      },
      "properties": {
        "name": "31 de mayo de 2026 a las 09:57",
        "marker-color": "red",
        "description": "31 de mayo de 2026 a las 09:52\nAltitud: 1718 msnm \nAltura: 10,80 m \n# individuos: 1 \nFotos: 9768 - 9771"
      }
    },
    {
      "type": "Feature",
      "geometry": {
        "type": "Point",
        "coordinates": [
          -78.7614,
          -0.020954
        ]
      },
      "properties": {
        "name": "31 de mayo de 2026 a las 10:10",
        "marker-color": "red",
        "description": "Altura: 9,10 m \nAltitud: 1715 msnm \n# individuos: 1 \nFotos: 9774 9776"
      }
    },
    {
      "type": "Feature",
      "geometry": {
        "type": "Point",
        "coordinates": [
          -78.76165,
          -0.021424
        ]
      },
      "properties": {
        "name": "31 de mayo de 2026 a las 10:39",
        "marker-color": "red",
        "description": "Altitud: 1713 msnm\nAltura: 16,70 m \n# individuos: 1 \nFotos: 9778 - 0781\n\nAltura: 10,20 m \n9787 - 9790"
      }
    },
    {
      "type": "Feature",
      "geometry": {
        "type": "Point",
        "coordinates": [
          -78.761533,
          -0.021503
        ]
      },
      "properties": {
        "name": "31 de mayo de 2026 a las 10:51",
        "marker-color": "red",
        "description": "31 de mayo de 2026 a las 10:51\nAltitud: 1708 msnm \nAltura: 6,60 m\n# individuos: 3 \nFotos: 9783 - 9786"
      }
    },
    {
      "type": "Feature",
      "geometry": {
        "type": "Point",
        "coordinates": [
          -78.761606,
          -0.021511
        ]
      },
      "properties": {
        "name": "31 de mayo de 2026 a las 10:54",
        "marker-color": "red",
        "description": "31 de mayo de 2026 a las 10:54\nAltitud: 1702 msnm \nAltura: 5,2 m \n# individuos: 3 \nFotos: 9791 - 9793"
      }
    },
    {
      "type": "Feature",
      "geometry": {
        "type": "Point",
        "coordinates": [
          -78.761618,
          -0.0217
        ]
      },
      "properties": {
        "name": "31 de mayo de 2026 a las 11:05",
        "marker-color": "red",
        "description": "31 de mayo de 2026 a las 11:05\nAltitud: 1699 msnm \nAltura: 12,30 m  \n# individuos: 1 \nFotos: 9803 - 9805 \n\nOtra \nAltura: 12,10 m \n# individuos: 1 \nFotos: 9806 - 9807"
      }
    },
    {
      "type": "Feature",
      "geometry": {
        "type": "Point",
        "coordinates": [
          -78.76159,
          -0.021641
        ]
      },
      "properties": {
        "name": "31 de mayo de 2026 a las 11:11",
        "marker-color": "red",
        "description": "31 de mayo de 2026 a las 11:11\nAltitud: 1700 msnm \nAltura: 3m \n# individuos: 1 \nFotos: 9808 - 9810"
      }
    },
    {
      "type": "Feature",
      "geometry": {
        "type": "Point",
        "coordinates": [
          -78.761696,
          -0.021969
        ]
      },
      "properties": {
        "name": "31 de mayo de 2026 a las 11:26",
        "marker-color": "red",
        "description": "31 de mayo de 2026 a las 11:11\nAltitud: 1692 msnm \nAltura: 8,10 m \n# individuos: 1 \nFotos: 9813 - 9818"
      }
    },
    {
      "type": "Feature",
      "geometry": {
        "type": "Point",
        "coordinates": [
          -78.761727,
          -0.022024
        ]
      },
      "properties": {
        "name": "31 de mayo de 2026 a las 11:28",
        "marker-color": "red",
        "description": "Altitud: 1691 msnm \nAltura: 5,5 m \n# individuos: 5 \nFotos: 9819 - 9821"
      }
    },
    {
      "type": "Feature",
      "geometry": {
        "type": "Point",
        "coordinates": [
          -78.761743,
          -0.022098
        ]
      },
      "properties": {
        "name": "31 de mayo de 2026 a las 11:31",
        "marker-color": "red",
        "description": "31 de mayo de 2026 a las 11:31\nAltitud: 1693 msnm \nAltura: 4 m \n# individuos: 1 \nFotos: 9823 - 9831"
      }
    },
    {
      "type": "Feature",
      "geometry": {
        "type": "Point",
        "coordinates": [
          -78.762229,
          -0.02305
        ]
      },
      "properties": {
        "name": "31 de mayo de 2026 a las 11:48",
        "marker-color": "red",
        "description": "31 de mayo de 2026 a las 11:48\nAltitud: 1657 msnm \nAltura: 10,20 m \n# individuos: 1 \nFotos: 9832 - 9836"
      }
    },
    {
      "type": "Feature",
      "geometry": {
        "type": "Point",
        "coordinates": [
          -78.76216,
          -0.023413
        ]
      },
      "properties": {
        "name": "31 de mayo de 2026 a las 12:04",
        "marker-color": "red",
        "description": "31 de mayo de 2026 a las 12:04\nAltitud: 1643 msnm \nAltura: 3 m \n# individuo: 1 \nFotos: 9839 - 9842 \n\nOtra (misma rama): \n# individuos: 2 \nFotos: 9843 - 9845"
      }
    }
  ]
}